STARLINK-36827          
1 67908U 26036E   26061.83335647 -.01557418  00000+0 -70801-2 0  9991
2 67908  42.9948 291.8064 0001642 272.5356 115.0509 15.85618381  2549
STARLINK-36822          
1 67909U 26036F   26061.83335647 -.01555719  00000+0 -70071-2 0  9993
2 67909  42.9949 291.7977 0001742 272.7721 118.3700 15.85802500  2549
STARLINK-36847          
1 67910U 26036G   26061.83335647 -.01545072  00000+0 -68940-2 0  9998
2 67910  42.9949 291.7885 0001859 269.7775 124.9227 15.85972354  2545
STARLINK-36736          
1 67911U 26036H   26061.83335647 -.01551077  00000+0 -68643-2 0  9991
2 67911  42.9947 291.7793 0001719 277.7224 120.5165 15.86150831  2547
STARLINK-36676          
1 67912U 26036J   26061.83335647 -.01540083  00000+0 -67473-2 0  9997
2 67912  42.9949 291.7711 0001923 275.3184 126.3401 15.86332353  2544
STARLINK-36690          
1 67913U 26036K   26061.83335647 -.01539701  00000+0 -66940-2 0  9991
2 67913  42.9949 291.7619 0001833 273.9306 131.3126 15.86487676  2541
STARLINK-36724          
1 67914U 26036L   26061.83335647 -.01538386  00000+0 -65758-2 0  9996
2 67914  42.9947 291.7440 0001808 270.8208 141.3175 15.86826701  2542
STARLINK-36723          
1 67915U 26036M   26061.83335647 -.01546018  00000+0 -66729-2 0  9997
2 67915  42.9949 291.7529 0001710 273.6317 135.1815 15.86646195  2546
STARLINK-36721          
1 67916U 26036N   26061.83335647 -.01553377  00000+0 -66001-2 0  9997
2 67916  42.9950 291.7356 0001740 278.2554 137.4979 15.86974584  2546
STARLINK-36722          
1 67917U 26036P   26061.83335647 -.01799088  00000+0 -76852-2 0  9994
2 67917  42.9949 291.7270 0002245 270.0480 149.0598 15.87308869  2543
STARLINK-36341          
1 67918U 26036Q   26061.83335647 -.01545353  00000+0 -64002-2 0  9993
2 67918  42.9949 291.7098 0001859 271.9344 153.9339 15.87469974  2543
STARLINK-36663          
1 67919U 26036R   26061.83335647 -.01545597  00000+0 -64544-2 0  9995
2 67919  42.9950 291.7186 0001836 273.3204 149.1866 15.87305757  2540
STARLINK-36375          
1 67920U 26036S   26061.83335647 -.01552996  00000+0 -63870-2 0  9999
2 67920  42.9950 291.7014 0001831 273.9125 155.3988 15.87623186  2548
STARLINK-36405          
1 67921U 26036T   26061.83335647 -.01545978  00000+0 -63009-2 0  9996
2 67921  42.9950 291.6933 0001793 274.7501 157.7794 15.87791247  2547
STARLINK-36383          
1 67922U 26036U   26061.83335647 -.01554181  00000+0 -62911-2 0  9994
2 67922  42.9951 291.6847 0001780 274.5348 161.4315 15.87941634  2544
STARLINK-36406          
1 67923U 26036V   26061.83335647 -.01552143  00000+0 -62311-2 0  9995
2 67923  42.9951 291.6765 0001744 274.6233 164.5927 15.88102330  2544
